0 ARIANE 5 R/B
1 35757U 09044C   13283.14631424  .00005158  00000-0  16089-2 0  9148
2 35757 001.7838 242.8180 7228971 339.1485 017.9427 02.34332184 34928
0 ARIANE 5 R/B
1 35757U 09044C   13285.29256991  .00005006  00000-0  15723-2 0  9155
2 35757 001.7757 241.9170 7229065 340.9744 028.5796 02.34353462 34974
0 ARIANE 5 R/B
1 35757U 09044C   13287.63522300  .00005936  00000-0  18910-2 0  9169
2 35757 001.7673 240.9059 7229266 342.9909 205.0944 02.34375883 35030
0 ARIANE 5 R/B
1 35757U 09044C   13289.80071395  .00006830  00000-0  21303-2 0  9178
2 35757 001.7595 239.9652 7229721 344.8642 232.3297 02.34400954 35088
0 ARIANE 5 R/B
1 35757U 09044C   13292.10336427  .00007349  00000-0  21967-2 0  9188
2 35757 001.7500 238.9678 7230149 346.8593 015.5253 02.34432314 35138
0 ARIANE 5 R/B
1 35757U 09044C   13292.49467201  .00007091  00000-0  21129-2 0  9190
2 35757 001.7485 238.7968 7230163 347.1999 345.7693 02.34436297 35141
0 ARIANE 5 R/B
1 35757U 09044C   13294.54404422  .00006688  00000-0  19253-2 0  9202
2 35757 001.7400 237.8920 7230296 348.9908 275.4721 02.34465161 35190
0 ARIANE 5 R/B
1 35757U 09044C   13295.34441088  .00007578  00000-0  21523-2 0  9213
2 35757 001.7368 237.5343 7230240 349.6915 231.0580 02.34476993 35213
